KUIPER-00079            
1 64826U 25151L   25337.46270630  .00005401  00000+0  73177-3 0  9995
2 64826  51.8996   6.0880 0011569 282.7734  77.1935 14.80204503 22253
KUIPER-00080            
1 64827U 25151M   25337.49620800  .00000652  00000+0  11479-3 0  9997
2 64827  51.9011   5.9406 0005443 295.0796  64.9601 14.79865833 21063
KUIPER-00082            
1 64828U 25151N   25337.34044030 -.00078481  00000+0 -10421-1 0  9998
2 64828  51.9023 354.1384 0004793 315.5904  44.4673 14.79782653 21214
KUIPER-00083            
1 64829U 25151P   25337.33269956  .00007391  00000+0  99629-3 0  9993
2 64829  51.9017   1.6731 0011015 281.9755  77.9972 14.79955001 22294
KUIPER-00084            
1 64830U 25151Q   25337.38950066 -.00004254  00000+0 -52831-3 0  9990
2 64830  51.9006  11.4095 0011603 257.0038 102.9629 14.79938280 20978
KUIPER-00085            
1 64831U 25151R   25337.30714552  .00007195  00000+0  97115-3 0  9990
2 64831  51.9049 354.3048 0007118 295.3412  64.6813 14.79955630 21204
KUIPER-00086            
1 64832U 25151S   25337.49885529  .00003319  00000+0  46382-3 0  9998
2 64832  51.9020   3.4447 0010993 281.8822  78.0908 14.79949665 21091
KUIPER-00087            
1 64833U 25151T   25337.45023542  .00005852  00000+0  79579-3 0  9992
2 64833  51.9002 346.1553 0000782 348.2551  11.8393 14.79939580 21323
