<?xml version="1.0" encoding="UTF-8"?>
<ndm xmlns:xsi="http://www.w3.org/2001/XMLSchema-instance" xsi:noNamespaceSchemaLocation="https://sanaregistry.org/r/ndmxml_unqualified/ndmxml-2.0.0-master-2.0.xsd">
<omm id="CCSDS_OMM_VERS" version="2.0">
<header><CREATION_DATE/><ORIGINATOR/></header><body><segment><metadata><OBJECT_NAME>KUIPER-00079</OBJECT_NAME><OBJECT_ID>2025-151L</OBJECT_ID><CENTER_NAME>EARTH</CENTER_NAME><REF_FRAME>TEME</REF_FRAME><TIME_SYSTEM>UTC</TIME_SYSTEM><MEAN_ELEMENT_THEORY>SGP4</MEAN_ELEMENT_THEORY></metadata><data><meanElements><EPOCH>2025-12-03T11:06:17.824320</EPOCH><MEAN_MOTION>14.80204503</MEAN_MOTION><ECCENTRICITY>.0011569</ECCENTRICITY><INCLINATION>51.8996</INCLINATION><RA_OF_ASC_NODE>6.0880</RA_OF_ASC_NODE><ARG_OF_PERICENTER>282.7734</ARG_OF_PERICENTER><MEAN_ANOMALY>77.1935</MEAN_ANOMALY></meanElements><tleParameters><EPHEMERIS_TYPE>0</EPHEMERIS_TYPE><CLASSIFICATION_TYPE>U</CLASSIFICATION_TYPE><NORAD_CAT_ID>64826</NORAD_CAT_ID><ELEMENT_SET_NO>999</ELEMENT_SET_NO><REV_AT_EPOCH>2225</REV_AT_EPOCH><BSTAR>.73177E-3</BSTAR><MEAN_MOTION_DOT>.5401E-4</MEAN_MOTION_DOT><MEAN_MOTION_DDOT>0</MEAN_MOTION_DDOT></tleParameters></data></segment></body></omm>
<omm id="CCSDS_OMM_VERS" version="2.0">
<header><CREATION_DATE/><ORIGINATOR/></header><body><segment><metadata><OBJECT_NAME>KUIPER-00080</OBJECT_NAME><OBJECT_ID>2025-151M</OBJECT_ID><CENTER_NAME>EARTH</CENTER_NAME><REF_FRAME>TEME</REF_FRAME><TIME_SYSTEM>UTC</TIME_SYSTEM><MEAN_ELEMENT_THEORY>SGP4</MEAN_ELEMENT_THEORY></metadata><data><meanElements><EPOCH>2025-12-03T11:54:32.371200</EPOCH><MEAN_MOTION>14.79865833</MEAN_MOTION><ECCENTRICITY>.0005443</ECCENTRICITY><INCLINATION>51.9011</INCLINATION><RA_OF_ASC_NODE>5.9406</RA_OF_ASC_NODE><ARG_OF_PERICENTER>295.0796</ARG_OF_PERICENTER><MEAN_ANOMALY>64.9601</MEAN_ANOMALY></meanElements><tleParameters><EPHEMERIS_TYPE>0</EPHEMERIS_TYPE><CLASSIFICATION_TYPE>U</CLASSIFICATION_TYPE><NORAD_CAT_ID>64827</NORAD_CAT_ID><ELEMENT_SET_NO>999</ELEMENT_SET_NO><REV_AT_EPOCH>2106</REV_AT_EPOCH><BSTAR>.11479E-3</BSTAR><MEAN_MOTION_DOT>.652E-5</MEAN_MOTION_DOT><MEAN_MOTION_DDOT>0</MEAN_MOTION_DDOT></tleParameters></data></segment></body></omm>
<omm id="CCSDS_OMM_VERS" version="2.0">
<header><CREATION_DATE/><ORIGINATOR/></header><body><segment><metadata><OBJECT_NAME>KUIPER-00082</OBJECT_NAME><OBJECT_ID>2025-151N</OBJECT_ID><CENTER_NAME>EARTH</CENTER_NAME><REF_FRAME>TEME</REF_FRAME><TIME_SYSTEM>UTC</TIME_SYSTEM><MEAN_ELEMENT_THEORY>SGP4</MEAN_ELEMENT_THEORY></metadata><data><meanElements><EPOCH>2025-12-03T08:10:14.041920</EPOCH><MEAN_MOTION>14.79782653</MEAN_MOTION><ECCENTRICITY>.0004793</ECCENTRICITY><INCLINATION>51.9023</INCLINATION><RA_OF_ASC_NODE>354.1384</RA_OF_ASC_NODE><ARG_OF_PERICENTER>315.5904</ARG_OF_PERICENTER><MEAN_ANOMALY>44.4673</MEAN_ANOMALY></meanElements><tleParameters><EPHEMERIS_TYPE>0</EPHEMERIS_TYPE><CLASSIFICATION_TYPE>U</CLASSIFICATION_TYPE><NORAD_CAT_ID>64828</NORAD_CAT_ID><ELEMENT_SET_NO>999</ELEMENT_SET_NO><REV_AT_EPOCH>2121</REV_AT_EPOCH><BSTAR>-.10421E-1</BSTAR><MEAN_MOTION_DOT>-.78481E-3</MEAN_MOTION_DOT><MEAN_MOTION_DDOT>0</MEAN_MOTION_DDOT></tleParameters></data></segment></body></omm>
<omm id="CCSDS_OMM_VERS" version="2.0">
<header><CREATION_DATE/><ORIGINATOR/></header><body><segment><metadata><OBJECT_NAME>KUIPER-00083</OBJECT_NAME><OBJECT_ID>2025-151P</OBJECT_ID><CENTER_NAME>EARTH</CENTER_NAME><REF_FRAME>TEME</REF_FRAME><TIME_SYSTEM>UTC</TIME_SYSTEM><MEAN_ELEMENT_THEORY>SGP4</MEAN_ELEMENT_THEORY></metadata><data><meanElements><EPOCH>2025-12-03T07:59:05.241984</EPOCH><MEAN_MOTION>14.79955001</MEAN_MOTION><ECCENTRICITY>.0011015</ECCENTRICITY><INCLINATION>51.9017</INCLINATION><RA_OF_ASC_NODE>1.6731</RA_OF_ASC_NODE><ARG_OF_PERICENTER>281.9755</ARG_OF_PERICENTER><MEAN_ANOMALY>77.9972</MEAN_ANOMALY></meanElements><tleParameters><EPHEMERIS_TYPE>0</EPHEMERIS_TYPE><CLASSIFICATION_TYPE>U</CLASSIFICATION_TYPE><NORAD_CAT_ID>64829</NORAD_CAT_ID><ELEMENT_SET_NO>999</ELEMENT_SET_NO><REV_AT_EPOCH>2229</REV_AT_EPOCH><BSTAR>.99629E-3</BSTAR><MEAN_MOTION_DOT>.7391E-4</MEAN_MOTION_DOT><MEAN_MOTION_DDOT>0</MEAN_MOTION_DDOT></tleParameters></data></segment></body></omm>
<omm id="CCSDS_OMM_VERS" version="2.0">
<header><CREATION_DATE/><ORIGINATOR/></header><body><segment><metadata><OBJECT_NAME>KUIPER-00084</OBJECT_NAME><OBJECT_ID>2025-151Q</OBJECT_ID><CENTER_NAME>EARTH</CENTER_NAME><REF_FRAME>TEME</REF_FRAME><TIME_SYSTEM>UTC</TIME_SYSTEM><MEAN_ELEMENT_THEORY>SGP4</MEAN_ELEMENT_THEORY></metadata><data><meanElements><EPOCH>2025-12-03T09:20:52.857024</EPOCH><MEAN_MOTION>14.79938280</MEAN_MOTION><ECCENTRICITY>.0011603</ECCENTRICITY><INCLINATION>51.9006</INCLINATION><RA_OF_ASC_NODE>11.4095</RA_OF_ASC_NODE><ARG_OF_PERICENTER>257.0038</ARG_OF_PERICENTER><MEAN_ANOMALY>102.9629</MEAN_ANOMALY></meanElements><tleParameters><EPHEMERIS_TYPE>0</EPHEMERIS_TYPE><CLASSIFICATION_TYPE>U</CLASSIFICATION_TYPE><NORAD_CAT_ID>64830</NORAD_CAT_ID><ELEMENT_SET_NO>999</ELEMENT_SET_NO><REV_AT_EPOCH>2097</REV_AT_EPOCH><BSTAR>-.52831E-3</BSTAR><MEAN_MOTION_DOT>-.4254E-4</MEAN_MOTION_DOT><MEAN_MOTION_DDOT>0</MEAN_MOTION_DDOT></tleParameters></data></segment></body></omm>
<omm id="CCSDS_OMM_VERS" version="2.0">
<header><CREATION_DATE/><ORIGINATOR/></header><body><segment><metadata><OBJECT_NAME>KUIPER-00085</OBJECT_NAME><OBJECT_ID>2025-151R</OBJECT_ID><CENTER_NAME>EARTH</CENTER_NAME><REF_FRAME>TEME</REF_FRAME><TIME_SYSTEM>UTC</TIME_SYSTEM><MEAN_ELEMENT_THEORY>SGP4</MEAN_ELEMENT_THEORY></metadata><data><meanElements><EPOCH>2025-12-03T07:22:17.372928</EPOCH><MEAN_MOTION>14.79955630</MEAN_MOTION><ECCENTRICITY>.0007118</ECCENTRICITY><INCLINATION>51.9049</INCLINATION><RA_OF_ASC_NODE>354.3048</RA_OF_ASC_NODE><ARG_OF_PERICENTER>295.3412</ARG_OF_PERICENTER><MEAN_ANOMALY>64.6813</MEAN_ANOMALY></meanElements><tleParameters><EPHEMERIS_TYPE>0</EPHEMERIS_TYPE><CLASSIFICATION_TYPE>U</CLASSIFICATION_TYPE><NORAD_CAT_ID>64831</NORAD_CAT_ID><ELEMENT_SET_NO>999</ELEMENT_SET_NO><REV_AT_EPOCH>2120</REV_AT_EPOCH><BSTAR>.97115E-3</BSTAR><MEAN_MOTION_DOT>.7195E-4</MEAN_MOTION_DOT><MEAN_MOTION_DDOT>0</MEAN_MOTION_DDOT></tleParameters></data></segment></body></omm>
<omm id="CCSDS_OMM_VERS" version="2.0">
<header><CREATION_DATE/><ORIGINATOR/></header><body><segment><metadata><OBJECT_NAME>KUIPER-00086</OBJECT_NAME><OBJECT_ID>2025-151S</OBJECT_ID><CENTER_NAME>EARTH</CENTER_NAME><REF_FRAME>TEME</REF_FRAME><TIME_SYSTEM>UTC</TIME_SYSTEM><MEAN_ELEMENT_THEORY>SGP4</MEAN_ELEMENT_THEORY></metadata><data><meanElements><EPOCH>2025-12-03T11:58:21.097056</EPOCH><MEAN_MOTION>14.79949665</MEAN_MOTION><ECCENTRICITY>.0010993</ECCENTRICITY><INCLINATION>51.9020</INCLINATION><RA_OF_ASC_NODE>3.4447</RA_OF_ASC_NODE><ARG_OF_PERICENTER>281.8822</ARG_OF_PERICENTER><MEAN_ANOMALY>78.0908</MEAN_ANOMALY></meanElements><tleParameters><EPHEMERIS_TYPE>0</EPHEMERIS_TYPE><CLASSIFICATION_TYPE>U</CLASSIFICATION_TYPE><NORAD_CAT_ID>64832</NORAD_CAT_ID><ELEMENT_SET_NO>999</ELEMENT_SET_NO><REV_AT_EPOCH>2109</REV_AT_EPOCH><BSTAR>.46382E-3</BSTAR><MEAN_MOTION_DOT>.3319E-4</MEAN_MOTION_DOT><MEAN_MOTION_DDOT>0</MEAN_MOTION_DDOT></tleParameters></data></segment></body></omm>
<omm id="CCSDS_OMM_VERS" version="2.0">
<header><CREATION_DATE/><ORIGINATOR/></header><body><segment><metadata><OBJECT_NAME>KUIPER-00087</OBJECT_NAME><OBJECT_ID>2025-151T</OBJECT_ID><CENTER_NAME>EARTH</CENTER_NAME><REF_FRAME>TEME</REF_FRAME><TIME_SYSTEM>UTC</TIME_SYSTEM><MEAN_ELEMENT_THEORY>SGP4</MEAN_ELEMENT_THEORY></metadata><data><meanElements><EPOCH>2025-12-03T10:48:20.340288</EPOCH><MEAN_MOTION>14.79939580</MEAN_MOTION><ECCENTRICITY>.0000782</ECCENTRICITY><INCLINATION>51.9002</INCLINATION><RA_OF_ASC_NODE>346.1553</RA_OF_ASC_NODE><ARG_OF_PERICENTER>348.2551</ARG_OF_PERICENTER><MEAN_ANOMALY>11.8393</MEAN_ANOMALY></meanElements><tleParameters><EPHEMERIS_TYPE>0</EPHEMERIS_TYPE><CLASSIFICATION_TYPE>U</CLASSIFICATION_TYPE><NORAD_CAT_ID>64833</NORAD_CAT_ID><ELEMENT_SET_NO>999</ELEMENT_SET_NO><REV_AT_EPOCH>2132</REV_AT_EPOCH><BSTAR>.79579E-3</BSTAR><MEAN_MOTION_DOT>.5852E-4</MEAN_MOTION_DOT><MEAN_MOTION_DDOT>0</MEAN_MOTION_DDOT></tleParameters></data></segment></body></omm>

</ndm>
